RESURS-DK 1             
1 29228U 06021A   22254.45165732  .00000976  00000+0  78884-4 0  9990
2 29228  69.9336 269.8219 0007498 282.0531  77.9790 15.03391746895300
ARIRANG-2 (KOMPSAT-2)   
1 29268U 06031A   22254.98242524  .00000382  00000+0  83557-4 0  9992
2 29268  97.9427 120.3160 0016098 101.9114 258.3915 14.62837322860545
LAPAN-TUBSAT            
1 29709U 07001A   22255.15016062  .00000448  00000+0  62449-4 0  9996
2 29709  97.9749 217.5328 0012352 340.7107  19.3653 14.82553664847355
CARTOSAT-2 (IRS-P7)     
1 29710U 07001B   22254.85526674  .00024472  00000+0  57205-3 0  9995
2 29710  97.8721   5.4909 0145763 113.9364 247.7221 15.31719878849450
HAIYANG-1B              
1 31113U 07010A   22254.80505493  .00000045  00000+0  33136-4 0  9994
2 31113  98.3164 276.1445 0012911 320.9882  39.0369 14.30331810804115
COSMO-SKYMED 1          
1 31598U 07023A   22255.01786205  .00000975  00000+0  12902-3 0  9990
2 31598  97.8901  77.4412 0001506  94.1753 265.9730 14.82163094825788
TERRASAR-X              
1 31698U 07026A   22254.47837492 -.00001076  00000+0 -48090-4 0  9991
2 31698  97.4465 260.8593 0001764  86.9078  40.6492 15.19138900845170
WORLDVIEW-1 (WV-1)      
1 32060U 07041A   22254.85882510  .00005771  00000+0  23725-3 0  9996
2 32060  97.3946  13.0707 0006464 173.8797 186.2520 15.24540093833552
YAOGAN 3                
1 32289U 07055A   22255.05857486  .00001148  00000+0  15305-3 0  9990
2 32289  97.9454 276.2684 0001150 100.7050 259.4225 14.81524516801868
COSMO-SKYMED 2          
1 32376U 07059A   22254.98409229 -.00000420  00000+0 -46201-4 0  9994
2 32376  97.8893  77.4068 0001310  82.7032 277.4246 14.82160186798526
RADARSAT-2              
1 32382U 07061A   22255.03845453  .00000214  00000+0  10000-3 0  9990
2 32382  98.5773 260.7198 0001129  97.1632 355.8979 14.29983563769674
CARTOSAT-2A             
1 32783U 08021A   22255.03660078  .00000469  00000+0  71026-4 0  9998
2 32783  97.9582 314.3599 0011478 244.9786 115.0181 14.78693570775815
HUANJING 1A (HJ-1A)     
1 33320U 08041A   22254.94852596  .00000386  00000+0  60275-4 0  9997
2 33320  97.6729 283.9306 0020083 314.0121  45.9419 14.77907536755164
HUANJING 1B (HJ-1B)     
1 33321U 08041B   22255.23788932  .00000842  00000+0  12294-3 0  9997
2 33321  97.6898 287.9462 0033616 330.4440  29.4877 14.77860949755207
GEOEYE 1                
1 33331U 08042A   22254.99404087  .00000388  00000+0  81970-4 0  9990
2 33331  98.1072 328.7154 0008909  11.2716 348.8673 14.64569801749032
THEOS                   
1 33396U 08049A   22255.03973444  .00000160  00000+0  95858-4 0  9990
2 33396  98.7427 321.7794 0001113  92.8144  25.4403 14.20008939722959
COSMO-SKYMED 3          
1 33412U 08054A   22255.02570735 -.00000169  00000+0 -10901-4 0  9997
2 33412  97.8905  78.8742 0017332 186.5065 173.5999 14.91880990751089
YAOGAN 4                
1 33446U 08061A   22254.79730376  .00000490  00000+0  75696-4 0  9991
2 33446  97.8202 192.3169 0015347 210.4669 149.5652 14.77455961742340
GOSAT (IBUKI)           
1 33492U 09002A   22254.87154654  .00000536  00000+0  10317-3 0  9995
2 33492  98.1226   6.8108 0001362  79.7859 280.3498 14.67521528729891
YAOGAN 6                
1 34839U 09021A   22255.12999495  .00005738  00000+0  19715-3 0  9991
2 34839  97.0905 231.3006 0025356 352.1933   7.8910 15.30176753744504
DEIMOS-1                
1 35681U 09041A   22254.92515928  .00000344  00000+0  62001-4 0  9996
2 35681  97.7063 101.5284 0001201  10.7507 349.3743 14.72103714704499
DUBAISAT-1              
1 35682U 09041B   22254.99914875  .00000752  00000+0  13523-3 0  9995
2 35682  97.8142  44.4528 0011783 148.6313 211.5589 14.69279370702996
OCEANSAT-2              
1 35931U 09051A   22254.94012861 -.00045275  00000+0 -16536-1 0  9998
2 35931  98.2993 346.5685 0004758 198.7243 161.3495 14.33314263686625
WORLDVIEW-2 (WV-2)      
1 35946U 09055A   22254.99362781  .00000106  00000+0  49652-4 0  9992
2 35946  98.4825 329.0298 0002177 102.5060 257.6355 14.37660733678340
SMOS                    
1 36036U 09059A   22255.10978313  .00000197  00000+0  76679-4 0  9994
2 36036  98.4446  81.3805 0001100  87.1189 273.0125 14.39781290675873
YAOGAN 7                
1 36110U 09069A   22254.95472013 -.00001769  00000+0 -25275-3 0  9999
2 36110  98.1934 115.7610 0026393 128.4263 231.9310 14.75152682686894
TANDEM-X                
1 36605U 10030A   22254.40926171  .00001851  00000+0  91324-4 0  9996
2 36605  97.4443 260.7914 0001869  81.6168  28.2740 15.19155474677911
CARTOSAT-2B             
1 36795U 10035A   22255.00694297  .00000518  00000+0  77681-4 0  9998
2 36795  97.9529 314.4179 0012972 329.1886  30.8588 14.78669169656859
YAOGAN 10               
1 36834U 10038A   22255.20461139  .00000455  00000+0  65012-4 0  9999
2 36834  97.9766 265.6253 0001158  91.8330 268.3038 14.81338612653627
COSMO-SKYMED 4          
1 37216U 10060A   22255.13178938 -.00000674  00000+0 -78168-4 0  9994
2 37216  97.8899  77.5526 0001486  75.0311 285.1173 14.82145501641097
RESOURCESAT-2           
1 37387U 11015A   22255.04944363  .00000048  00000+0  41583-4 0  9991
2 37387  98.6570 325.9366 0004406 166.2417 193.8866 14.21658475591469
HAIYANG-2A              
1 37781U 11043A   22255.01219376 -.00000014  00000+0  29119-4 0  9991
2 37781  99.3197 259.3701 0001015  46.5132 313.6104 13.78745247557565
RASAT                   
1 37791U 11044D   22254.97400547  .00000322  00000+0  68904-4 0  9995
2 37791  98.0957 346.6258 0020965 214.9324 145.0508 14.65067305591788
MEGHA-TROPIQUES         
1 37838U 11058A   22255.01834231  .00000569  00000+0  10276-3 0  9990
2 37838  19.9761 120.1257 0107417 158.1202 202.3835 14.30447567563380
SRMSAT                  
1 37841U 11058D   22254.84768975  .00000381  00000+0  63844-4 0  9997
2 37841  19.9723  92.6882 0011855 213.1897 261.8384 14.10770171563456
YAOGAN 13               
1 37941U 11072A   22255.14066182  .00005556  00000+0  24661-3 0  9991
2 37941  97.6382 206.5284 0003611  89.7353 327.8949 15.21982501597988
PLEIADES 1A             
1 38012U 11076F   22255.16151748  .00000231  00000+0  59575-4 0  9998
2 38012  98.1950 328.9625 0001558  96.3114 263.8262 14.58547039571712
ZIYUAN 1-02C (ZY 1-02C) 
1 38038U 11079A   22255.21910039  .00000153  00000+0  68721-4 0  9997
2 38038  98.5822 319.4146 0006965  16.5802 343.5630 14.35333363561936
ZIYUAN 3-1 (ZY 3-1)     
1 38046U 12001A   22255.12152456  .00004629  00000+0  20932-3 0  9996
2 38046  97.3345 323.8600 0002884 102.7290 344.5579 15.21405297592783
ARIRANG-3 (KOMPSAT-3)   
1 38338U 12025B   22255.16571698  .00000365  00000+0  82239-4 0  9995
2 38338  98.1833 194.4087 0011988 100.7137 259.5420 14.61912306550648
KANOPUS-V 1             
1 38707U 12039A   22255.08300594  .00003972  00000+0  17320-3 0  9991
2 38707  97.4665 176.6156 0002026  85.5242  39.3000 15.22754857562578
EXACTVIEW-1 (ADS-1B)    
1 38709U 12039C   22255.18553185  .00000063  00000+0  47670-4 0  9990
2 38709  99.0024 323.7944 0011320 164.3219 195.8312 14.24118135527089
SPOT 6                  
1 38755U 12047A   22255.17614779  .00000470  00000+0  11108-3 0  9994
2 38755  98.2280 320.9802 0001108  95.5215 264.6062 14.58557690532792
PLEIADES 1B             
1 39019U 12068A   22255.19548849  .00000181  00000+0  48677-4 0  9998
2 39019  98.1903 328.9367 0001353  81.6229 278.5126 14.58568177520574
GOKTURK 2               
1 39030U 12073A   22255.18991825  .00000334  00000+0  59540-4 0  9993
2 39030  97.8422 131.3188 0002366  74.6527 285.4953 14.72914711522127
LANDSAT 8               
1 39084U 13008A   22255.15447326  .00000258  00000+0  67432-4 0  9994
2 39084  98.2160 324.3482 0001395  94.3772 265.7586 14.57104746509628
SARAL                   
1 39086U 13009A   22254.81884788  .00000046  00000+0  33191-4 0  9996
2 39086  98.5494  79.1838 0001836  51.9365 308.1984 14.32061238498846
GAOFEN 1                
1 39150U 13018A   22255.17799368  .00000478  00000+0  75975-4 0  9992
2 39150  98.0672 321.5257 0022385   8.1019 352.0557 14.76466689505538
VNREDSAT 1              
1 39160U 13021B   22254.42217799 -.00002710  00000+0 -52096-3 0  9998
2 39160  98.0726 327.9966 0001564 104.7315 314.7634 14.62920718499181
ARIRANG-5 (KOMPSAT-5)   
1 39227U 13042A   22255.12339034 -.00000050  00000+0  74259-6 0  9992
2 39227  97.6330  79.7188 0002244  88.3545  27.3563 15.04505904497311
SKYSAT-A                
1 39418U 13066C   22254.76392048  .00000720  00000+0  62089-4 0  9992
2 39418  97.5501 324.0364 0026234 331.0607  28.9161 15.00087811481598
DUBAISAT-2              
1 39419U 13066D   22255.17930601  .00002084  00000+0  19428-3 0  9995
2 39419  97.4411 282.7877 0013369 354.9902   5.1193 14.95192259480153
GPM-CORE                
1 39574U 14009C   22255.21427327  .00010939  00000+0  16219-3 0  9999
2 39574  64.9994 253.0026 0010209 268.3580  91.6397 15.55609768485119
SENTINEL-1A             
1 39634U 14016A   22254.99057036  .00000010  00000+0  11744-4 0  9992
2 39634  98.1822 261.3232 0001342  83.0188 277.1140 14.59198425449641
KAZEOSAT 1              
1 39731U 14024A   22255.22357558  .00000100  00000+0  43923-4 0  9992
2 39731  98.4589 329.9718 0001134  92.3458 267.7862 14.41988809440599
ALOS-2                  
1 39766U 14029A   22254.90729206  .00000041  00000+0  12304-4 0  9995
2 39766  97.9224 350.7982 0001498  87.6305 272.5135 14.79472115448418
KAZEOSAT 2              
1 40010U 14033A   22255.19851389  .00000419  00000+0  59046-4 0  9997
2 40010  97.7105 137.3219 0015211 149.6724 210.5384 14.82100476445295
HODOYOSHI-4             
1 40011U 14033B   22255.22744374  .00000750  00000+0  10086-3 0  9995
2 40011  97.6653 124.8243 0027025 150.8613 209.4124 14.81772537444940
DEIMOS-2                
1 40013U 14033D   22255.19794202  .00001019  00000+0  12425-3 0  9996
2 40013  97.7488 150.0789 0001500 120.5113 239.6248 14.85469379446073
